start=new Date('2022-04-17T00:00:00.000Z').valueOf();
sats=[{"NORAD_CAT_ID":"48430","MEAN_MOTION_DOT":"0.00048159","MEAN_MOTION":"15.06338790","COUNTRY_CODE":"US","OBJECT_ID":"2021-040C","DECAY_DATE":null,"EPHEMERIS_TYPE":"0","REF_FRAME":"TEME","MEAN_MOTION_DDOT":"0.0000000000000","CENTER_NAME":"EARTH","ARG_OF_PERICENTER":"71.3681","OBJECT_NAME":"STARLINK-2729","RCS_SIZE":"LARGE","TLE_LINE1":"1 48430U 21040C   22106.91668981  .00048159  00000-0  32353-2 0  9990","LAUNCH_DATE":"2021-05-09","ELEMENT_SET_NO":"999","MEAN_ANOMALY":"293.7311","FILE":"3404767","BSTAR":"0.00323530000000","PERIOD":"95.596","APOAPSIS":"548.533","SITE":"AFETR","TLE_LINE2":"2 48430  53.0546  63.6968 0001634  71.3681 293.7311 15.06338790  3609","OBJECT_TYPE":"PAYLOAD","TIME_SYSTEM":"UTC","PERIAPSIS":"546.270","ECCENTRICITY":"0.00016340","GP_ID":"201419956","INCLINATION":"53.0546","RA_OF_ASC_NODE":"63.6968","CLASSIFICATION_TYPE":"U","EPOCH":"2022-04-16T22:00:01.999584","REV_AT_EPOCH":"360","SEMIMAJOR_AXIS":"6925.536","MEAN_ELEMENT_THEORY":"SGP4"},{"SEMIMAJOR_AXIS":"6925.471","REV_AT_EPOCH":"359","EPOCH":"2022-04-16T22:00:01.999584","MEAN_ELEMENT_THEORY":"SGP4","INCLINATION":"53.0554","RA_OF_ASC_NODE":"58.6892","CLASSIFICATION_TYPE":"U","GP_ID":"201419706","PERIAPSIS":"546.190","TIME_SYSTEM":"UTC","TLE_LINE2":"2 48431  53.0554  58.6892 0001654  70.8089 221.7897 15.06360071  3592","OBJECT_TYPE":"PAYLOAD","ECCENTRICITY":"0.00016540","FILE":"3404767","SITE":"AFETR","BSTAR":"0.00019919000000","APOAPSIS":"548.481","PERIOD":"95.595","TLE_LINE1":"1 48431U 21040D   22106.91668981  .00002683  00000-0  19919-3 0  9997","ELEMENT_SET_NO":"999","LAUNCH_DATE":"2021-05-09","MEAN_ANOMALY":"221.7897","MEAN_MOTION_DDOT":"0.0000000000000","CENTER_NAME":"EARTH","REF_FRAME":"TEME","RCS_SIZE":"LARGE","ARG_OF_PERICENTER":"70.8089","OBJECT_NAME":"STARLINK-2700","DECAY_DATE":null,"OBJECT_ID":"2021-040D","EPHEMERIS_TYPE":"0","MEAN_MOTION_DOT":"0.00002683","NORAD_CAT_ID":"48431","MEAN_MOTION":"15.06360071","COUNTRY_CODE":"US"},{"MEAN_MOTION":"15.06330096","COUNTRY_CODE":"US","MEAN_MOTION_DOT":"0.00049923","NORAD_CAT_ID":"48432","EPHEMERIS_TYPE":"0","DECAY_DATE":null,"OBJECT_ID":"2021-040E","RCS_SIZE":"LARGE","OBJECT_NAME":"STARLINK-2680","ARG_OF_PERICENTER":"78.5566","CENTER_NAME":"EARTH","MEAN_MOTION_DDOT":"0.0000000000000","REF_FRAME":"TEME","MEAN_ANOMALY":"161.5720","ELEMENT_SET_NO":"999","LAUNCH_DATE":"2021-05-09","TLE_LINE1":"1 48432U 21040E   22106.91668981  .00049923  00000-0  33531-2 0  9991","SITE":"AFETR","APOAPSIS":"548.501","PERIOD":"95.597","BSTAR":"0.00335310000000","FILE":"3404767","ECCENTRICITY":"0.00015490","TIME_SYSTEM":"UTC","PERIAPSIS":"546.355","OBJECT_TYPE":"PAYLOAD","TLE_LINE2":"2 48432  53.0550  53.7040 0001549  78.5566 161.5720 15.06330096  3598","RA_OF_ASC_NODE":"53.7040","INCLINATION":"53.0550","CLASSIFICATION_TYPE":"U","GP_ID":"201420958","MEAN_ELEMENT_THEORY":"SGP4","SEMIMAJOR_AXIS":"6925.563","REV_AT_EPOCH":"359","EPOCH":"2022-04-16T22:00:01.999584"},{"ECCENTRICITY":"0.00014340","TIME_SYSTEM":"UTC","PERIAPSIS":"546.335","TLE_LINE2":"2 48433  53.0564  58.6929 0001434  82.8116  29.7993 15.06362649  3592","OBJECT_TYPE":"PAYLOAD","SITE":"AFETR","BSTAR":"0.00044220000000","APOAPSIS":"548.321","PERIOD":"95.595","FILE":"3404767","MEAN_ELEMENT_THEORY":"SGP4","SEMIMAJOR_AXIS":"6925.463","EPOCH":"2022-04-16T22:00:01.999584","REV_AT_EPOCH":"359","INCLINATION":"53.0564","CLASSIFICATION_TYPE":"U","RA_OF_ASC_NODE":"58.6929","GP_ID":"201421205","EPHEMERIS_TYPE":"0","DECAY_DATE":null,"OBJECT_ID":"2021-040F","MEAN_MOTION":"15.06362649","COUNTRY_CODE":"US","MEAN_MOTION_DOT":"0.00006305","NORAD_CAT_ID":"48433","ELEMENT_SET_NO":"999","LAUNCH_DATE":"2021-05-09","MEAN_ANOMALY":"29.7993","TLE_LINE1":"1 48433U 21040F   22106.91668981  .00006305  00000-0  44220-3 0  9997","RCS_SIZE":"LARGE","ARG_OF_PERICENTER":"82.8116","OBJECT_NAME":"STARLINK-2699","MEAN_MOTION_DDOT":"0.0000000000000","CENTER_NAME":"EARTH","REF_FRAME":"TEME"},{"EPHEMERIS_TYPE":"0","DECAY_DATE":null,"OBJECT_ID":"2021-040G","COUNTRY_CODE":"US","MEAN_MOTION":"15.06394951","MEAN_MOTION_DOT":"0.00006704","NORAD_CAT_ID":"48434","MEAN_ANOMALY":"347.9199","ELEMENT_SET_NO":"999","LAUNCH_DATE":"2021-05-09","TLE_LINE1":"1 48434U 21040G   22106.91668981  .00006704  00000-0  46858-3 0  9990","RCS_SIZE":"LARGE","OBJECT_NAME":"STARLINK-2692","ARG_OF_PERICENTER":"77.1933","CENTER_NAME":"EARTH","MEAN_MOTION_DDOT":"0.0000000000000","REF_FRAME":"TEME","ECCENTRICITY":"0.00014470","PERIAPSIS":"546.227","TIME_SYSTEM":"UTC","OBJECT_TYPE":"PAYLOAD","TLE_LINE2":"2 48434  53.0550  63.6992 0001447  77.1933 347.9199 15.06394951  3596","SITE":"AFETR","APOAPSIS":"548.231","PERIOD":"95.592","BSTAR":"0.00046858000000","FILE":"3404767","MEAN_ELEMENT_THEORY":"SGP4","SEMIMAJOR_AXIS":"6925.364","REV_AT_EPOCH":"359","EPOCH":"2022-04-16T22:00:01.999584","CLASSIFICATION_TYPE":"U","RA_OF_ASC_NODE":"63.6992","INCLINATION":"53.0550","GP_ID":"201419456"},{"ECCENTRICITY":"0.00019620","TLE_LINE2":"2 48435  53.0558  73.7893 0001962  54.1090 306.0081 15.06401716 52383","OBJECT_TYPE":"PAYLOAD","PERIAPSIS":"545.850","TIME_SYSTEM":"UTC","BSTAR":"0.00005288100000","PERIOD":"95.592","APOAPSIS":"548.567","SITE":"AFETR","FILE":"3404767","MEAN_ELEMENT_THEORY":"SGP4","REV_AT_EPOCH":"5238","EPOCH":"2022-04-16T21:25:31.594656","SEMIMAJOR_AXIS":"6925.343","GP_ID":"201420207","RA_OF_ASC_NODE":"73.7893","CLASSIFICATION_TYPE":"U","INCLINATION":"53.0558","EPHEMERIS_TYPE":"0","OBJECT_ID":"2021-040H","DECAY_DATE":null,"MEAN_MOTION":"15.06401716","COUNTRY_CODE":"US","NORAD_CAT_ID":"48435","MEAN_MOTION_DOT":"0.00000506","ELEMENT_SET_NO":"999","LAUNCH_DATE":"2021-05-09","MEAN_ANOMALY":"306.0081","TLE_LINE1":"1 48435U 21040H   22106.89272679  .00000506  00000-0  52881-4 0  9991","ARG_OF_PERICENTER":"54.1090","OBJECT_NAME":"STARLINK-2633","RCS_SIZE":"LARGE","REF_FRAME":"TEME","MEAN_MOTION_DDOT":"0.0000000000000","CENTER_NAME":"EARTH"},{"PERIAPSIS":"546.079","TIME_SYSTEM":"UTC","TLE_LINE2":"2 48436  53.0551  89.1374 0001654  56.4471 303.6675 15.06396556 52161","OBJECT_TYPE":"PAYLOAD","ECCENTRICITY":"0.00016540","FILE":"3404767","SITE":"AFETR","BSTAR":"-0.00005222400000","PERIOD":"95.592","APOAPSIS":"548.370","SEMIMAJOR_AXIS":"6925.359","EPOCH":"2022-04-16T19:36:05.943744","REV_AT_EPOCH":"5216","MEAN_ELEMENT_THEORY":"SGP4","RA_OF_ASC_NODE":"89.1374","INCLINATION":"53.0551","CLASSIFICATION_TYPE":"U","GP_ID":"201420458","DECAY_DATE":null,"OBJECT_ID":"2021-040J","EPHEMERIS_TYPE":"0","MEAN_MOTION_DOT":"-0.00001059","NORAD_CAT_ID":"48436","MEAN_MOTION":"15.06396556","COUNTRY_CODE":"US","TLE_LINE1":"1 48436U 21040J   22106.81673546 -.00001059  00000-0 -52224-4 0  9999","LAUNCH_DATE":"2021-05-09","ELEMENT_SET_NO":"999","MEAN_ANOMALY":"303.6675","MEAN_MOTION_DDOT":"0.0000000000000","CENTER_NAME":"EARTH","REF_FRAME":"TEME","RCS_SIZE":"LARGE","ARG_OF_PERICENTER":"56.4471","OBJECT_NAME":"STARLINK-2639"},{"CENTER_NAME":"EARTH","MEAN_MOTION_DDOT":"0.0000000000000","REF_FRAME":"TEME","RCS_SIZE":"LARGE","OBJECT_NAME":"STARLINK-2642","ARG_OF_PERICENTER":"46.5011","TLE_LINE1":"1 48437U 21040K   22106.66837686 -.00004686  00000-0 -29586-3 0  9993","MEAN_ANOMALY":"313.6142","ELEMENT_SET_NO":"999","LAUNCH_DATE":"2021-05-09","MEAN_MOTION_DOT":"-0.00004686","NORAD_CAT_ID":"48437","MEAN_MOTION":"15.06400118","COUNTRY_CODE":"US","DECAY_DATE":null,"OBJECT_ID":"2021-040K","EPHEMERIS_TYPE":"0","INCLINATION":"53.0522","CLASSIFICATION_TYPE":"U","RA_OF_ASC_NODE":"99.8038","GP_ID":"201420705","SEMIMAJOR_AXIS":"6925.348","REV_AT_EPOCH":"5200","EPOCH":"2022-04-16T16:02:27.760704","MEAN_ELEMENT_THEORY":"SGP4","FILE":"3404767","SITE":"AFETR","APOAPSIS":"548.577","PERIOD":"95.592","BSTAR":"-0.00029586000000","TIME_SYSTEM":"UTC","PERIAPSIS":"545.850","OBJECT_TYPE":"PAYLOAD","TLE_LINE2":"2 48437  53.0522  99.8038 0001969  46.5011 313.6142 15.06400118 52007","ECCENTRICITY":"0.00019690"},{"RCS_SIZE":"LARGE","ARG_OF_PERICENTER":"42.9156","OBJECT_NAME":"STARLINK-2640","MEAN_MOTION_DDOT":"0.0000000000000","CENTER_NAME":"EARTH","REF_FRAME":"TEME","ELEMENT_SET_NO":"999","LAUNCH_DATE":"2021-05-09","MEAN_ANOMALY":"317.1992","TLE_LINE1":"1 48438U 21040L   22106.68035476 -.00000664  00000-0 -25649-4 0  9992","COUNTRY_CODE":"US","MEAN_MOTION":"15.06402069","MEAN_MOTION_DOT":"-0.00000664","NORAD_CAT_ID":"48438","EPHEMERIS_TYPE":"0","DECAY_DATE":null,"OBJECT_ID":"2021-040L","INCLINATION":"53.0537","RA_OF_ASC_NODE":"89.7575","CLASSIFICATION_TYPE":"U","GP_ID":"201419957","MEAN_ELEMENT_THEORY":"SGP4","SEMIMAJOR_AXIS":"6925.342","EPOCH":"2022-04-16T16:19:42.651264","REV_AT_EPOCH":"5214","SITE":"AFETR","BSTAR":"-0.00002564900000","PERIOD":"95.592","APOAPSIS":"548.628","FILE":"3404767","ECCENTRICITY":"0.00020520","TIME_SYSTEM":"UTC","PERIAPSIS":"545.786","TLE_LINE2":"2 48438  53.0537  89.7575 0002052  42.9156 317.1992 15.06402069 52146","OBJECT_TYPE":"PAYLOAD"},{"NORAD_CAT_ID":"48439","MEAN_MOTION_DOT":"-0.00002524","MEAN_MOTION":"15.06391675","COUNTRY_CODE":"US","OBJECT_ID":"2021-040M","DECAY_DATE":null,"EPHEMERIS_TYPE":"0","REF_FRAME":"TEME","CENTER_NAME":"EARTH","MEAN_MOTION_DDOT":"0.0000000000000","OBJECT_NAME":"STARLINK-2583","ARG_OF_PERICENTER":"62.5626","RCS_SIZE":"LARGE","TLE_LINE1":"1 48439U 21040M   22106.67667350 -.00002524  00000-0 -15064-3 0  9990","MEAN_ANOMALY":"297.5563","LAUNCH_DATE":"2021-05-09","ELEMENT_SET_NO":"999","FILE":"3404767","PERIOD":"95.593","APOAPSIS":"548.600","BSTAR":"-0.00015064000000","SITE":"AFETR","OBJECT_TYPE":"PAYLOAD","TLE_LINE2":"2 48439  53.0547  89.7820 0001965  62.5626 297.5563 15.06391675 52148","PERIAPSIS":"545.878","TIME_SYSTEM":"UTC","ECCENTRICITY":"0.00019650","GP_ID":"201419707","INCLINATION":"53.0547","CLASSIFICATION_TYPE":"U","RA_OF_ASC_NODE":"89.7820","EPOCH":"2022-04-16T16:14:24.590400","REV_AT_EPOCH":"5214","SEMIMAJOR_AXIS":"6925.374","MEAN_ELEMENT_THEORY":"SGP4"}];
